{"type": "FeatureCollection", "features": [ {"type": "Feature", "properties": {"norad_id": 41469, "name": "IRNSS-1G", "group": "gnss", "lat": -0.9285669745526858, "lon": -66.74202260624229, "alt_km": 35808.12416208533, "timestamp": "2025-12-09T05:43:20.967460+00:00", "meta": {"OBJECT_NAME": "IRNSS-1G", "OBJECT_ID": "2016-027A", "EPOCH": "2025-12-08T19:21:20.292768", "MEAN_MOTION": 1.00251249, "ECCENTRICITY": 0.0004642, "INCLINATION": 4.7233, "RA_OF_ASC_NODE": 102.201, "ARG_OF_PERICENTER": 336.0207, "MEAN_ANOMALY": 59.2031, "EPHEMERIS_TYPE": 0, "CLASSIFICATION_TYPE": "U", "NORAD_CAT_ID": 41469, "ELEMENT_SET_NO": 999, "REV_AT_EPOCH": 3527, "BSTAR": 0, "MEAN_MOTION_DOT": -3.35e-06, "MEAN_MOTION_DDOT": 0}, "tle": {"line1": "1 41469U 16027A   25342.80648487 -.00000335  00000+0  00000+0 0  9991", "line2": "2 41469   4.7233 102.2010 0004642 336.0207  59.2031  1.00251249 35279"}}, "geometry": {"type": "Point", "coordinates": [-66.74202260624229, -0.9285669745526858]}}, {"type": "Feature", "properties": {"norad_id": 41549, "name": "GSAT0211 (GALILEO 14)", "group": "gnss", "lat": -42.960884170270205, "lon": -173.47660067391428, "alt_km": 23223.378228026282, "timestamp": "2025-12-09T05:43:20.967473+00:00", "meta": {"OBJECT_NAME": "GSAT0211 (GALILEO 14)", "OBJECT_ID": "2016-030A", "EPOCH": "2025-12-07T13:40:58.264320", "MEAN_MOTION": 1.70472997, "ECCENTRICITY": 0.00040128, "INCLINATION": 55.154, "RA_OF_ASC_NODE": 226.9659, "ARG_OF_PERICENTER": 14.4678, "MEAN_ANOMALY": 345.6377, "EPHEMERIS_TYPE": 0, "CLASSIFICATION_TYPE": "U", "NORAD_CAT_ID": 41549, "ELEMENT_SET_NO": 999, "REV_AT_EPOCH": 5940, "BSTAR": 0, "MEAN_MOTION_DOT": 2.3e-07, "MEAN_MOTION_DDOT": 0}, "tle": {"line1": "1 41549U 16030A   25341.57011880  .00000023  00000+0  00000+0 0  9991", "line2": "2 41549  55.1540 226.9659 0004012  14.4678 345.6377  1.70472997 59400"}}, "geometry": {"type": "Point", "coordinates": [-173.47660067391428, -42.960884170270205]}}, {"type": "Feature", "properties": {"norad_id": 41550, "name": "GSAT0210 (GALILEO 13)", "group": "gnss", "lat": 27.37314368339486, "lon": 25.802732847036065, "alt_km": 23219.43337882347, "timestamp": "2025-12-09T05:43:20.967488+00:00", "meta": {"OBJECT_NAME": "GSAT0210 (GALILEO 13)", "OBJECT_ID": "2016-030B", "EPOCH": "2025-12-07T19:51:37.971648", "MEAN_MOTION": 1.70473554, "ECCENTRICITY": 0.00013454, "INCLINATION": 55.1532, "RA_OF_ASC_NODE": 226.9569, "ARG_OF_PERICENTER": 243.5769, "MEAN_ANOMALY": 116.5022, "EPHEMERIS_TYPE": 0, "CLASSIFICATION_TYPE": "U", "NORAD_CAT_ID": 41550, "ELEMENT_SET_NO": 999, "REV_AT_EPOCH": 5940, "BSTAR": 0, "MEAN_MOTION_DOT": 2.1e-07, "MEAN_MOTION_DDOT": 0}, "tle": {"line1": "1 41550U 16030B   25341.82752282  .00000021  00000+0  00000+0 0  9997", "line2": "2 41550  55.1532 226.9569 0001345 243.5769 116.5022  1.70473554 59407"}}, "geometry": {"type": "Point", "coordinates": [25.802732847036065, 27.37314368339486]}}, {"type": "Feature", "properties": {"norad_id": 41586, "name": "BEIDOU-2 G7 (C03)", "group": "gnss", "lat": -0.8085042431938306, "lon": -85.4978795760664, "alt_km": 35803.74275936833, "timestamp": "2025-12-09T05:43:20.967500+00:00", "meta": {"OBJECT_NAME": "BEIDOU-2 G7 (C03)", "OBJECT_ID": "2016-037A", "EPOCH": "2025-12-08T20:58:40.969920", "MEAN_MOTION": 1.00268828, "ECCENTRICITY": 0.0004336, "INCLINATION": 1.7471, "RA_OF_ASC_NODE": 67.6909, "ARG_OF_PERICENTER": 1.9563, "MEAN_ANOMALY": 73.366, "EPHEMERIS_TYPE": 0, "CLASSIFICATION_TYPE": "U", "NORAD_CAT_ID": 41586, "ELEMENT_SET_NO": 999, "REV_AT_EPOCH": 498, "BSTAR": 0, "MEAN_MOTION_DOT": -3.51e-06, "MEAN_MOTION_DDOT": 0}, "tle": {"line1": "1 41586U 16037A   25342.87408530 -.00000351  00000+0  00000+0 0  9990", "line2": "2 41586   1.7471  67.6909 0004336   1.9563  73.3660  1.00268828  4984"}}, "geometry": {"type": "Point", "coordinates": [-85.4978795760664, -0.8085042431938306]}}, {"type": "Feature", "properties": {"norad_id": 41589, "name": "EUTELSAT 117 WEST B (WAAS/PRN 131)", "group": "gnss", "lat": -0.011990618673146016, "lon": 47.05984543243998, "alt_km": 35785.86247575437, "timestamp": "2025-12-09T05:43:20.967512+00:00", "meta": {"OBJECT_NAME": "EUTELSAT 117 WEST B (WAAS/PRN 131)", "OBJECT_ID": "2016-038B", "EPOCH": "2025-12-08T16:28:20.761824", "MEAN_MOTION": 1.00268965, "ECCENTRICITY": 4.33e-05, "INCLINATION": 0.0072, "RA_OF_ASC_NODE": 147.2989, "ARG_OF_PERICENTER": 317.1838, "MEAN_ANOMALY": 103.2954, "EPHEMERIS_TYPE": 0, "CLASSIFICATION_TYPE": "U", "NORAD_CAT_ID": 41589, "ELEMENT_SET_NO": 999, "REV_AT_EPOCH": 3475, "BSTAR": 0, "MEAN_MOTION_DOT": -9e-08, "MEAN_MOTION_DDOT": 0}, "tle": {"line1": "1 41589U 16038B   25342.68635141 -.00000009  00000+0  00000+0 0  9993", "line2": "2 41589   0.0072 147.2989 0000433 317.1838 103.2954  1.00268965 34759"}}, "geometry": {"type": "Point", "coordinates": [47.05984543243998, -0.011990618673146016]}}, {"type": "Feature", "properties": {"norad_id": 41859, "name": "GSAT0207 (GALILEO 15)", "group": "gnss", "lat": -20.259017971530056, "lon": 91.57954788273264, "alt_km": 23218.59654577249, "timestamp": "2025-12-09T05:43:20.967524+00:00", "meta": {"OBJECT_NAME": "GSAT0207 (GALILEO 15)", "OBJECT_ID": "2016-069A", "EPOCH": "2025-12-06T22:22:57.829728", "MEAN_MOTION": 1.70474256, "ECCENTRICITY": 0.00021753, "INCLINATION": 55.3787, "RA_OF_ASC_NODE": 106.4111, "ARG_OF_PERICENTER": 324.2379, "MEAN_ANOMALY": 35.7022, "EPHEMERIS_TYPE": 0, "CLASSIFICATION_TYPE": "U", "NORAD_CAT_ID": 41859, "ELEMENT_SET_NO": 999, "REV_AT_EPOCH": 5612, "BSTAR": 0, "MEAN_MOTION_DOT": 7e-08, "MEAN_MOTION_DDOT": 0}, "tle": {"line1": "1 41859U 16069A   25340.93261377  .00000007  00000+0  00000+0 0  9996", "line2": "2 41859  55.3787 106.4111 0002175 324.2379  35.7022  1.70474256 56122"}}, "geometry": {"type": "Point", "coordinates": [91.57954788273264, -20.259017971530056]}}, {"type": "Feature", "properties": {"norad_id": 41860, "name": "GSAT0212 (GALILEO 16)", "group": "gnss", "lat": 48.22471181863093, "lon": 156.91958749562636, "alt_km": 23210.872669447577, "timestamp": "2025-12-09T05:43:20.967537+00:00", "meta": {"OBJECT_NAME": "GSAT0212 (GALILEO 16)", "OBJECT_ID": "2016-069B", "EPOCH": "2025-12-06T04:47:33.838080", "MEAN_MOTION": 1.70474471, "ECCENTRICITY": 0.00022225, "INCLINATION": 55.376, "RA_OF_ASC_NODE": 106.4267, "ARG_OF_PERICENTER": 32.4045, "MEAN_ANOMALY": 327.5613, "EPHEMERIS_TYPE": 0, "CLASSIFICATION_TYPE": "U", "NORAD_CAT_ID": 41860, "ELEMENT_SET_NO": 999, "REV_AT_EPOCH": 5636, "BSTAR": 0, "MEAN_MOTION_DOT": 6e-08, "MEAN_MOTION_DDOT": 0}, "tle": {"line1": "1 41860U 16069B   25340.19969720  .00000006  00000+0  00000+0 0  9992", "line2": "2 41860  55.3760 106.4267 0002222  32.4045 327.5613  1.70474471 56361"}}, "geometry": {"type": "Point", "coordinates": [156.91958749562636, 48.22471181863093]}}, {"type": "Feature", "properties": {"norad_id": 41861, "name": "GSAT0213 (GALILEO 17)", "group": "gnss", "lat": -15.824690015136063, "lon": -62.380152886685764, "alt_km": 23223.696707861367, "timestamp": "2025-12-09T05:43:20.967548+00:00", "meta": {"OBJECT_NAME": "GSAT0213 (GALILEO 17)", "OBJECT_ID": "2016-069C", "EPOCH": "2025-12-07T03:41:32.905248", "MEAN_MOTION": 1.70474767, "ECCENTRICITY": 0.00022126, "INCLINATION": 55.379, "RA_OF_ASC_NODE": 106.408, "ARG_OF_PERICENTER": 283.542, "MEAN_ANOMALY": 76.3889, "EPHEMERIS_TYPE": 0, "CLASSIFICATION_TYPE": "U", "NORAD_CAT_ID": 41861, "ELEMENT_SET_NO": 999, "REV_AT_EPOCH": 5624, "BSTAR": 0, "MEAN_MOTION_DOT": 7e-08, "MEAN_MOTION_DDOT": 0}, "tle": {"line1": "1 41861U 16069C   25341.15385307  .00000007  00000+0  00000+0 0  9994", "line2": "2 41861  55.3790 106.4080 0002212 283.5420  76.3889  1.70474767 56242"}}, "geometry": {"type": "Point", "coordinates": [-62.380152886685764, -15.824690015136063]}}, {"type": "Feature", "properties": {"norad_id": 41862, "name": "GSAT0214 (GALILEO 18)", "group": "gnss", "lat": 50.76106675549011, "lon": -131.34481708107757, "alt_km": 23219.840889800213, "timestamp": "2025-12-09T05:43:20.967559+00:00", "meta": {"OBJECT_NAME": "GSAT0214 (GALILEO 18)", "OBJECT_ID": "2016-069D", "EPOCH": "2025-12-07T21:16:28.160256", "MEAN_MOTION": 1.70474622, "ECCENTRICITY": 0.00012492, "INCLINATION": 55.3777, "RA_OF_ASC_NODE": 106.3805, "ARG_OF_PERICENTER": 290.0949, "MEAN_ANOMALY": 69.8506, "EPHEMERIS_TYPE": 0, "CLASSIFICATION_TYPE": "U", "NORAD_CAT_ID": 41862, "ELEMENT_SET_NO": 999, "REV_AT_EPOCH": 5638, "BSTAR": 0, "MEAN_MOTION_DOT": 8e-08, "MEAN_MOTION_DDOT": 0}, "tle": {"line1": "1 41862U 16069D   25341.88643704  .00000008  00000+0  00000+0 0  9994", "line2": "2 41862  55.3777 106.3805 0001249 290.0949  69.8506  1.70474622 56388"}}, "geometry": {"type": "Point", "coordinates": [-131.34481708107757, 50.76106675549011]}}, {"type": "Feature", "properties": {"norad_id": 42709, "name": "SES-15 (WAAS/PRN 133)", "group": "gnss", "lat": 0.031698660182040754, "lon": 34.90693941473372, "alt_km": 35789.23806943233, "timestamp": "2025-12-09T05:43:20.967576+00:00", "meta": {"OBJECT_NAME": "SES-15 (WAAS/PRN 133)", "OBJECT_ID": "2017-026A", "EPOCH": "2025-12-08T13:03:48.541248", "MEAN_MOTION": 1.00272613, "ECCENTRICITY": 8.213e-05, "INCLINATION": 0.0192, "RA_OF_ASC_NODE": 342.9145, "ARG_OF_PERICENTER": 237.5275, "MEAN_ANOMALY": 283.896, "EPHEMERIS_TYPE": 0, "CLASSIFICATION_TYPE": "U", "NORAD_CAT_ID": 42709, "ELEMENT_SET_NO": 999, "REV_AT_EPOCH": 552, "BSTAR": 0, "MEAN_MOTION_DOT": 6.2e-07, "MEAN_MOTION_DDOT": 0}, "tle": {"line1": "1 42709U 17026A   25342.54431182  .00000062  00000+0  00000+0 0  9998", "line2": "2 42709   0.0192 342.9145 0000821 237.5275 283.8960  1.00272613  5526"}}, "geometry": {"type": "Point", "coordinates": [34.90693941473372, 0.031698660182040754]}}]}